satname,norad_id,inclination_deg,eccentricity,mean_motion_rev_per_day,perigee_km,apogee_km,l1,l2
STARLINK-1420,45695,53.0464,0.0006234,15.66197168,365.5912524399291,374.0045776920333,1 45695U 20035AQ  26142.37784479  .00041407  00000+0  39752-3 0  9997,2 45695  53.0464  23.0207 0006234  85.1782 274.9944 15.66197168330862
STARLINK-1422,45696,53.1574,0.0003665,15.33452812,463.0117312955981,468.0281318264315,1 45696U 20035AR  26142.07275770  .00036340  00000+0  11141-2 0  9995,2 45696  53.1574  68.1681 0003665  95.9824 264.1596 15.33452812330210
STARLINK-1351,45697,53.0445,0.0005612,15.64715128,370.2688395151754,377.8475033756058,1 45697U 20035AS  26142.38206079  .00036979  00000+0  37744-3 0  9992,2 45697  53.0445  23.2388 0005612  96.4012 263.7642 15.64715128330866
STARLINK-1400,45700,53.0434,0.0004128,15.62493803,377.6662307099605,383.2461252376961,1 45700U 20035AV  26142.69936203  .00083695  00000+0  91948-3 0  9993,2 45700  53.0434  24.0608 0004128  56.2562 303.8844 15.62493803330870
STARLINK-1403,45701,53.1554,0.0002864,15.32440772,466.5717958169789,470.4935682108371,1 45701U 20035AW  26142.46552595  .00030732  00000+0  97519-3 0  9991,2 45701  53.1554  53.7566 0002864 106.9221 253.2095 15.32440772330440
STARLINK-1407,45703,53.0278,0.0003673,15.71537939,352.0280616761729,356.9738575212932,1 45703U 20035AY  26142.75002315 -.00054003  00000+0 -41069-3 0  9993,2 45703  53.0278 311.4284 0003673   0.4451 204.8215 15.71537939  5942
STARLINK-1411,45706,53.0338,0.0002519,15.82444194,321.8427987815203,325.2190990941963,1 45706U 20035BB  26142.75002315  .00133870  00000+0  62402-3 0  9998,2 45706  53.0338 334.4514 0002519 256.5780 229.2832 15.82444194  6017
STARLINK-1423,45710,53.0447,0.0007344,15.67099314,362.25412275342387,372.16168534849385,1 45710U 20035BF  26142.09957525  .00044629  00000+0  41246-3 0  9998,2 45710  53.0447  23.9486 0007344  56.7078 303.4640 15.67099314330815
STARLINK-1433,45711,53.0444,0.0007275,15.66736955,363.33992288457375,373.15591294013575,1 45711U 20035BG  26142.71837729  .00043125  00000+0  40469-3 0  9997,2 45711  53.0444  19.4513 0007275  63.1057 297.0701 15.66736955330933
STARLINK-1434,45712,53.051,0.0003483,15.32852935,464.921042789455,469.68957790284094,1 45712U 20035BH  26142.11979278  .00032192  00000+0  10076-2 0  9990,2 45712  53.0510  38.1836 0003483  60.2453 299.8894 15.32852935330639
STARLINK-1465,45731,53.0464,0.0002617,15.61250913,382.272987430134,385.81231225886313,1 45731U 20038B   26142.64381649  .00039166  00000+0  45728-3 0  9992,2 45731  53.0464 225.1294 0002617 315.2486  44.8315 15.61250913327891
STARLINK-1471,45735,53.0444,0.0003124,15.52574235,407.0928400550838,411.3335764652047,1 45735U 20038F   26142.30392486  .00018385  00000+0  30099-3 0  9995,2 45735  53.0444 148.2812 0003124  70.9315 289.2032 15.52574235328959
STARLINK-1480,45741,53.0482,0.0006288,15.62960315,374.86228457788275,383.3601999673656,1 45741U 20038M   26142.55362216  .00079485  00000+0  85781-3 0  9993,2 45741  53.0482 219.1438 0006288 336.5586  23.5140 15.62960315327985
STARLINK-1500,45744,53.0323,0.0002686,15.38406505,448.9866563376045,452.65517252923746,1 45744U 20038Q   26142.68880512  .00025843  00000+0  68015-3 0  9994,2 45744  53.0323 204.6016 0002686  92.6145 267.5165 15.38406505328192
STARLINK-1504,45746,53.0199,0.0003677,15.5775798,391.6571837072079,396.6375216201559,1 45746U 20038S   26141.22013662  .00022488  00000+0  30312-3 0  9990,2 45746  53.0199 150.9673 0003677  48.6966 311.4361 15.57757980328802
STARLINK-1506,45747,53.0759,0.0003314,15.27993231,479.5386255327285,484.08539973830375,1 45747U 20038T   26142.61036425  .00005387  00000+0  20719-3 0  9996,2 45747  53.0759 219.9114 0003314 116.1659 243.9681 15.27993231327989
STARLINK-1464,45751,53.0452,0.0003528,15.53028309,405.4960443147247,410.2842650750772,1 45751U 20038X   26142.46604877  .00039575  00000+0  62720-3 0  9990,2 45751  53.0452 211.3799 0003528 350.9698   9.1247 15.53028309328083
STARLINK-1477,45754,53.0462,4.89e-05,15.18082632,511.2988831188213,511.9727028979769,1 45754U 20038AA  26142.65427970  .00021020  00000+0  10312-2 0  9996,2 45754  53.0462 235.7818 0000489 251.6628 108.4312 15.18082632327751
STARLINK-1478,45755,53.0452,0.0004303,15.66451109,366.1652905960873,371.97193574678295,1 45755U 20038AB  26142.56418896  .00043093  00000+0  40940-3 0  9999,2 45755  53.0452 197.2927 0004303  19.6854 340.4326 15.66451109328279
STARLINK-1493,45759,53.0462,0.0006671,15.62388964,376.24965758283633,385.26737598132695,1 45759U 20038AF  26142.67737866  .00111811  00000+0  12264-2 0  9997,2 45759  53.0462 205.9934 0006671 329.2776  30.7846 15.62388964328160
STARLINK-1494,45760,53.0396,0.0006138,15.96283457,280.650888567684,288.83023706379663,1 45760U 20038AG  26142.75002315  .00238229  33628-4  56460-3 0  9999,2 45760  53.0396 137.9747 0006138  28.8232 164.0597 15.96283457  6043
STARLINK-1502,45764,53.047,0.000666,15.58615,387.1558985211541,396.1732742342101,1 45764U 20038AL  26142.56379362  .00052022  00000+0  66771-3 0  9995,2 45764  53.0470 209.9278 0006660 304.7867  55.2517 15.58615000328118
STARLINK-1470,45772,53.0415,0.000363,15.33916735,461.65623618196514,466.62372927142405,1 45772U 20038AU  26142.56318983  .00029323  00000+0  88889-3 0  9998,2 45772  53.0415 189.7632 0003630 343.3024  16.7856 15.33916735328393
STARLINK-1482,45773,53.1566,0.0004092,15.36340358,454.14524358357903,459.73907236646573,1 45773U 20038AV  26142.59951958  .00036015  00000+0  10075-2 0  9994,2 45773  53.1566 206.1031 0004092 331.3966  28.6812 15.36340358328180
STARLINK-1496,45780,53.0443,0.0007739,15.60096614,382.14191697785736,392.6135807061155,1 45780U 20038BC  26142.51410848  .00080488  00000+0  96951-3 0  9993,2 45780  53.0443 181.1634 0007739  21.5809 338.5528 15.60096614328498
STARLINK-1513,45786,53.1578,0.0001367,15.31698323,469.8087521113257,471.68123644856314,1 45786U 20038BJ  26142.58992727 -.00001669  00000+0 -42015-4 0  9996,2 45786  53.1578 207.4912 0001367  84.7241 275.3916 15.31698323328163
STARLINK-1522,46027,53.0619,0.000305,15.12300309,527.0800474081134,531.2935149146215,1 46027U 20055A   26142.04586598  .00015090  00000+0  87673-3 0  9999,2 46027  53.0619 154.9960 0003050   5.1464 354.9558 15.12300309319979
STARLINK-1523,46028,53.1604,0.000148,15.30179185,474.2629146573581,476.29152526646794,1 46028U 20055B   26142.39326683  .00001194  00000+0  52480-4 0  9994,2 46028  53.1604 144.3580 0001480  90.6038 269.5132 15.30179185320187
STARLINK-1526,46029,53.1617,0.0001659,15.30188006,474.11390452575597,476.38785862486384,1 46029U 20055C   26142.38695189 -.00000414  00000+0 -18305-5 0  9999,2 46029  53.1617 144.3879 0001659 128.4103 231.7047 15.30188006320171
STARLINK-1555,46032,53.1582,0.0001243,15.30202187,474.356668588759,476.0604102898624,1 46032U 20055F   26142.69771995  .00000397  00000+0  25525-4 0  9996,2 46032  53.1582 142.9384 0001243 102.1844 257.9296 15.30202187320220
STARLINK-1556,46033,53.1617,0.0001297,15.30201438,474.3218966073646,476.09965502040995,1 46033U 20055G   26142.41959947  .00002555  00000+0  98369-4 0  9996,2 46033  53.1617 144.2463 0001297  87.7842 272.3307 15.30201438320152
STARLINK-1557,46034,53.162,0.0001659,15.30176122,474.1493828140283,476.4233486867852,1 46034U 20055H   26142.03087982  .00004011  00000+0  14759-3 0  9995,2 46034  53.1620 146.0490 0001659 110.4279 249.6900 15.30176122320097
STARLINK-1558,46035,53.1618,0.0001277,15.30200869,474.3373020152667,476.0876474711149,1 46035U 20055J   26142.69139735 -.00000626  00000+0 -90014-5 0  9992,2 46035  53.1618 142.9795 0001277  83.1237 276.9909 15.30200869320227
STARLINK-1560,46036,53.162,0.0001177,15.30196532,474.41878350443403,476.0320650191061,1 46036U 20055K   26142.41644308  .00001965  00000+0  78472-4 0  9998,2 46036  53.1620 144.2647 0001177  83.1462 276.9673 15.30196532320185
STARLINK-1569,46039,53.1613,0.0001437,15.3019268,474.25209587388963,476.22175554013666,1 46039U 20055N   26142.69456219  .00000036  00000+0  13350-4 0  9995,2 46039  53.1613 142.9584 0001437 101.0775 259.0388 15.30192680320210
STARLINK-1582,46043,53.1592,0.0001226,15.31704676,469.88638573772005,471.56572695913655,1 46043U 20055S   26142.27094963 -.00000119  00000+0  79203-5 0  9991,2 46043  53.1592 144.5067 0001226  89.7515 270.3627 15.31704676320155
STARLINK-1591,46045,53.1606,0.0001445,15.30195531,474.2381017780672,476.21872438244736,1 46045U 20055U   26142.27001433  .00000172  00000+0  17931-4 0  9990,2 46045  53.1606 144.9304 0001445  92.1219 267.9947 15.30195531320131
STARLINK-1524,46047,53.1588,0.0001191,15.3169169,469.94906281477506,471.5804712156778,1 46047U 20055W   26142.69703755  .00003024  00000+0  10921-3 0  9994,2 46047  53.1588 129.8215 0001191  83.6833 276.4304 15.31691690320400
STARLINK-1527,46048,53.1604,0.0002215,15.31718706,469.16722027714513,472.20124808388755,1 46048U 20055X   26142.69235334  .00003145  00000+0  11302-3 0  9996,2 46048  53.1604 129.8225 0002215  79.9358 280.1894 15.31718706320379
STARLINK-1540,46051,53.1604,0.0001698,15.31657468,469.70382299584344,472.0297446808354,1 46051U 20055AA  26142.67843781  .00010782  00000+0  35919-3 0  9994,2 46051  53.1604 130.0959 0001698 110.2388 249.8796 15.31657468320412
STARLINK-1541,46052,53.1593,0.0002123,15.78446209,333.4172743840818,336.2676054542726,1 46052U 20055AB  26142.63633720  .00121242  00000+0  68018-3 0  9991,2 46052  53.1593 119.9266 0002123  98.2441 261.8821 15.78446209320510
STARLINK-1543,46053,53.1591,0.0001355,15.31709333,469.7841551164638,471.6401932426661,1 46053U 20055AC  26142.25892037  .00000906  00000+0  40965-4 0  9993,2 46053  53.1591 131.8564 0001355  75.9498 284.1654 15.31709333320345
STARLINK-1548,46054,53.1592,0.0001246,15.31702305,469.8797549317378,471.5864933666753,1 46054U 20055AD  26142.66442166  .00000895  00000+0  40601-4 0  9997,2 46054  53.1592 130.0451 0001246  98.4269 261.6873 15.31702305320400
